start=new Date('2022-09-25T00:00:00.000Z').valueOf();
sats=[{"APOAPSIS":"548.320","MEAN_MOTION_DDOT":"0.0000000000000","OBJECT_ID":"2020-062D","ELEMENT_SET_NO":"999","COUNTRY_CODE":"US","INCLINATION":"53.0529","REF_FRAME":"TEME","DECAY_DATE":null,"RA_OF_ASC_NODE":"263.8572","GP_ID":"213366935","NORAD_CAT_ID":"46328","EPHEMERIS_TYPE":"0","RCS_SIZE":"LARGE","OBJECT_NAME":"STARLINK-1686","EPOCH":"2022-09-24T06:28:31.668672","TLE_LINE1":"1 46328U 20062D   22267.26981098  .00001531  00000-0  12164-3 0  9992","LAUNCH_DATE":"2020-09-03","OBJECT_TYPE":"PAYLOAD","MEAN_MOTION":"15.06399096","CLASSIFICATION_TYPE":"U","BSTAR":"0.00012164000000","SITE":"AFETR","PERIAPSIS":"546.113","PERIOD":"95.592","ARG_OF_PERICENTER":"51.7943","CENTER_NAME":"EARTH","MEAN_ELEMENT_THEORY":"SGP4","MEAN_ANOMALY":"308.3190","ECCENTRICITY":"0.00015930","TLE_LINE2":"2 46328  53.0529 263.8572 0001593  51.7943 308.3190 15.06399096114311","FILE":"3582188","TIME_SYSTEM":"UTC","SEMIMAJOR_AXIS":"6925.351","MEAN_MOTION_DOT":"0.00001531","REV_AT_EPOCH":"11431"},{"INCLINATION":"53.0542","COUNTRY_CODE":"US","OBJECT_ID":"2020-062E","ELEMENT_SET_NO":"999","MEAN_MOTION_DDOT":"0.0000000000000","APOAPSIS":"548.343","REF_FRAME":"TEME","DECAY_DATE":null,"RA_OF_ASC_NODE":"261.9161","RCS_SIZE":"LARGE","EPHEMERIS_TYPE":"0","NORAD_CAT_ID":"46329","GP_ID":"213401083","BSTAR":"0.00022866000000","CLASSIFICATION_TYPE":"U","MEAN_MOTION":"15.06399902","OBJECT_TYPE":"PAYLOAD","LAUNCH_DATE":"2020-09-03","TLE_LINE1":"1 46329U 20062E   22267.70107707  .00003126  00000-0  22866-3 0  9991","EPOCH":"2022-09-24T16:49:33.058848","OBJECT_NAME":"STARLINK-1695","CENTER_NAME":"EARTH","PERIOD":"95.592","MEAN_ANOMALY":"292.6231","MEAN_ELEMENT_THEORY":"SGP4","ARG_OF_PERICENTER":"67.4931","PERIAPSIS":"546.084","SITE":"AFETR","SEMIMAJOR_AXIS":"6925.349","TIME_SYSTEM":"UTC","TLE_LINE2":"2 46329  53.0542 261.9161 0001631  67.4931 292.6231 15.06399902114377","FILE":"3582616","ECCENTRICITY":"0.00016310","REV_AT_EPOCH":"11437","MEAN_MOTION_DOT":"0.00003126"},{"DECAY_DATE":null,"REF_FRAME":"TEME","INCLINATION":"53.0542","COUNTRY_CODE":"US","OBJECT_ID":"2020-062F","ELEMENT_SET_NO":"999","APOAPSIS":"548.270","MEAN_MOTION_DDOT":"0.0000000000000","EPHEMERIS_TYPE":"0","RCS_SIZE":"LARGE","NORAD_CAT_ID":"46330","GP_ID":"213401333","RA_OF_ASC_NODE":"261.9492","PERIOD":"95.593","MEAN_ELEMENT_THEORY":"SGP4","MEAN_ANOMALY":"289.7375","ARG_OF_PERICENTER":"70.3776","CENTER_NAME":"EARTH","PERIAPSIS":"546.195","SITE":"AFETR","CLASSIFICATION_TYPE":"U","BSTAR":"0.00006454300000","OBJECT_TYPE":"PAYLOAD","MEAN_MOTION":"15.06393691","LAUNCH_DATE":"2020-09-03","OBJECT_NAME":"STARLINK-1710","EPOCH":"2022-09-24T16:33:37.668384","TLE_LINE1":"1 46330U 20062F   22267.69001931  .00000680  00000-0  64543-4 0  9994","MEAN_MOTION_DOT":"0.00000680","REV_AT_EPOCH":"11438","TIME_SYSTEM":"UTC","SEMIMAJOR_AXIS":"6925.368","FILE":"3582616","TLE_LINE2":"2 46330  53.0542 261.9492 0001498  70.3776 289.7375 15.06393691114383","ECCENTRICITY":"0.00014980"},{"EPHEMERIS_TYPE":"0","RCS_SIZE":"LARGE","GP_ID":"213366685","NORAD_CAT_ID":"46331","RA_OF_ASC_NODE":"283.5762","REF_FRAME":"TEME","DECAY_DATE":null,"COUNTRY_CODE":"US","INCLINATION":"53.0543","MEAN_MOTION_DDOT":"0.0000000000000","APOAPSIS":"548.108","OBJECT_ID":"2020-062G","ELEMENT_SET_NO":"999","MEAN_MOTION_DOT":"0.00002072","REV_AT_EPOCH":"11404","TIME_SYSTEM":"UTC","SEMIMAJOR_AXIS":"6925.379","ECCENTRICITY":"0.00012470","FILE":"3582188","TLE_LINE2":"2 46331  53.0543 283.5762 0001247  72.3055 287.8070 15.06390064114044","PERIAPSIS":"546.380","PERIOD":"95.593","CENTER_NAME":"EARTH","MEAN_ELEMENT_THEORY":"SGP4","ARG_OF_PERICENTER":"72.3055","MEAN_ANOMALY":"287.8070","SITE":"AFETR","OBJECT_TYPE":"PAYLOAD","MEAN_MOTION":"15.06390064","CLASSIFICATION_TYPE":"U","BSTAR":"0.00015800000000","OBJECT_NAME":"STARLINK-1719","TLE_LINE1":"1 46331U 20062G   22267.32696416  .00002072  00000-0  15800-3 0  9991","EPOCH":"2022-09-24T07:50:49.703424","LAUNCH_DATE":"2020-09-03"},{"REV_AT_EPOCH":"11410","MEAN_MOTION_DOT":"0.00000446","SEMIMAJOR_AXIS":"6925.363","TIME_SYSTEM":"UTC","ECCENTRICITY":"0.00018040","FILE":"3582616","TLE_LINE2":"2 46332  53.0540 281.7611 0001804  64.3234 295.7941 15.06395215114109","PERIAPSIS":"545.979","PERIOD":"95.592","MEAN_ELEMENT_THEORY":"SGP4","ARG_OF_PERICENTER":"64.3234","CENTER_NAME":"EARTH","MEAN_ANOMALY":"295.7941","SITE":"AFETR","MEAN_MOTION":"15.06395215","OBJECT_TYPE":"PAYLOAD","BSTAR":"0.00004887000000","CLASSIFICATION_TYPE":"U","EPOCH":"2022-09-24T17:39:58.125888","TLE_LINE1":"1 46332U 20062H   22267.73608942  .00000446  00000-0  48870-4 0  9991","OBJECT_NAME":"STARLINK-1721","LAUNCH_DATE":"2020-09-03","RCS_SIZE":"LARGE","EPHEMERIS_TYPE":"0","GP_ID":"213402334","NORAD_CAT_ID":"46332","RA_OF_ASC_NODE":"281.7611","DECAY_DATE":null,"REF_FRAME":"TEME","COUNTRY_CODE":"US","INCLINATION":"53.0540","APOAPSIS":"548.478","MEAN_MOTION_DDOT":"0.0000000000000","ELEMENT_SET_NO":"999","OBJECT_ID":"2020-062H"},{"OBJECT_NAME":"STARLINK-1723","TLE_LINE1":"1 46333U 20062J   22267.55179227  .00001491  00000-0  11902-3 0  9997","EPOCH":"2022-09-24T13:14:34.852128","LAUNCH_DATE":"2020-09-03","OBJECT_TYPE":"PAYLOAD","MEAN_MOTION":"15.06394760","CLASSIFICATION_TYPE":"U","BSTAR":"0.00011902000000","SITE":"AFETR","PERIAPSIS":"546.036","PERIOD":"95.592","MEAN_ELEMENT_THEORY":"SGP4","CENTER_NAME":"EARTH","ARG_OF_PERICENTER":"47.3236","MEAN_ANOMALY":"312.7898","ECCENTRICITY":"0.00017240","FILE":"3582616","TLE_LINE2":"2 46333  53.0537 282.5782 0001724  47.3236 312.7898 15.06394760114079","TIME_SYSTEM":"UTC","SEMIMAJOR_AXIS":"6925.365","MEAN_MOTION_DOT":"0.00001491","REV_AT_EPOCH":"11407","APOAPSIS":"548.424","MEAN_MOTION_DDOT":"0.0000000000000","ELEMENT_SET_NO":"999","OBJECT_ID":"2020-062J","COUNTRY_CODE":"US","INCLINATION":"53.0537","DECAY_DATE":null,"REF_FRAME":"TEME","RA_OF_ASC_NODE":"282.5782","GP_ID":"213401583","NORAD_CAT_ID":"46333","EPHEMERIS_TYPE":"0","RCS_SIZE":"LARGE"},{"REV_AT_EPOCH":"11437","MEAN_MOTION_DOT":"0.00000707","TLE_LINE2":"2 46334  53.0556 262.2488 0001414  75.2938 284.8208 15.06396739114379","FILE":"3582616","ECCENTRICITY":"0.00014140","SEMIMAJOR_AXIS":"6925.359","TIME_SYSTEM":"UTC","SITE":"AFETR","PERIOD":"95.592","CENTER_NAME":"EARTH","MEAN_ELEMENT_THEORY":"SGP4","ARG_OF_PERICENTER":"75.2938","MEAN_ANOMALY":"284.8208","PERIAPSIS":"546.244","LAUNCH_DATE":"2020-09-03","EPOCH":"2022-09-24T16:28:21.141120","TLE_LINE1":"1 46334U 20062K   22267.68635580  .00000707  00000-0  66329-4 0  9994","OBJECT_NAME":"STARLINK-1725","BSTAR":"0.00006632900000","CLASSIFICATION_TYPE":"U","MEAN_MOTION":"15.06396739","OBJECT_TYPE":"PAYLOAD","NORAD_CAT_ID":"46334","GP_ID":"213401833","RCS_SIZE":"LARGE","EPHEMERIS_TYPE":"0","RA_OF_ASC_NODE":"262.2488","REF_FRAME":"TEME","DECAY_DATE":null,"ELEMENT_SET_NO":"999","OBJECT_ID":"2020-062K","MEAN_MOTION_DDOT":"0.0000000000000","APOAPSIS":"548.203","INCLINATION":"53.0556","COUNTRY_CODE":"US"},{"MEAN_MOTION":"15.06401766","OBJECT_TYPE":"PAYLOAD","BSTAR":"0.00004574500000","CLASSIFICATION_TYPE":"U","EPOCH":"2022-09-24T18:43:39.233280","TLE_LINE1":"1 46335U 20062L   22267.78031520  .00000400  00000-0  45745-4 0  9999","OBJECT_NAME":"STARLINK-1727","LAUNCH_DATE":"2020-09-03","PERIAPSIS":"546.036","CENTER_NAME":"EARTH","PERIOD":"95.592","MEAN_ANOMALY":"303.0601","MEAN_ELEMENT_THEORY":"SGP4","ARG_OF_PERICENTER":"57.0550","SITE":"AFETR","SEMIMAJOR_AXIS":"6925.343","TIME_SYSTEM":"UTC","ECCENTRICITY":"0.00016920","TLE_LINE2":"2 46335  53.0546 281.5630 0001692  57.0550 303.0601 15.06401766114118","FILE":"3582616","REV_AT_EPOCH":"11411","MEAN_MOTION_DOT":"0.00000400","COUNTRY_CODE":"US","INCLINATION":"53.0546","MEAN_MOTION_DDOT":"0.0000000000000","APOAPSIS":"548.380","OBJECT_ID":"2020-062L","ELEMENT_SET_NO":"999","DECAY_DATE":null,"REF_FRAME":"TEME","RA_OF_ASC_NODE":"281.5630","RCS_SIZE":"LARGE","EPHEMERIS_TYPE":"0","GP_ID":"213402084","NORAD_CAT_ID":"46335"},{"DECAY_DATE":null,"REF_FRAME":"TEME","APOAPSIS":"548.436","MEAN_MOTION_DDOT":"0.0000000000000","ELEMENT_SET_NO":"999","OBJECT_ID":"2020-062M","COUNTRY_CODE":"US","INCLINATION":"53.0535","GP_ID":"213366936","NORAD_CAT_ID":"46336","RCS_SIZE":"LARGE","EPHEMERIS_TYPE":"0","RA_OF_ASC_NODE":"263.6669","SITE":"AFETR","PERIAPSIS":"546.089","MEAN_ELEMENT_THEORY":"SGP4","PERIOD":"95.593","CENTER_NAME":"EARTH","MEAN_ANOMALY":"288.9960","ARG_OF_PERICENTER":"71.1212","EPOCH":"2022-09-24T07:21:37.996128","TLE_LINE1":"1 46336U 20062M   22267.30668977  .00000695  00000-0  65580-4 0  9995","OBJECT_NAME":"STARLINK-1738","LAUNCH_DATE":"2020-09-03","MEAN_MOTION":"15.06383984","OBJECT_TYPE":"PAYLOAD","BSTAR":"0.00006558000000","CLASSIFICATION_TYPE":"U","REV_AT_EPOCH":"11431","MEAN_MOTION_DOT":"0.00000695","ECCENTRICITY":"0.00016940","FILE":"3582188","TLE_LINE2":"2 46336  53.0535 263.6669 0001694  71.1212 288.9960 15.06383984114316","SEMIMAJOR_AXIS":"6925.398","TIME_SYSTEM":"UTC"},{"GP_ID":"213368185","NORAD_CAT_ID":"46337","EPHEMERIS_TYPE":"0","RCS_SIZE":"LARGE","RA_OF_ASC_NODE":"263.9190","DECAY_DATE":null,"REF_FRAME":"TEME","MEAN_MOTION_DDOT":"0.0000000000000","APOAPSIS":"548.506","OBJECT_ID":"2020-062N","ELEMENT_SET_NO":"999","COUNTRY_CODE":"US","INCLINATION":"53.0533","MEAN_MOTION_DOT":"-0.00000112","REV_AT_EPOCH":"11431","ECCENTRICITY":"0.00018850","TLE_LINE2":"2 46337  53.0533 263.9190 0001885  54.8949 305.2216 15.06404135114313","FILE":"3582188","TIME_SYSTEM":"UTC","SEMIMAJOR_AXIS":"6925.336","SITE":"AFETR","PERIAPSIS":"545.895","PERIOD":"95.592","MEAN_ANOMALY":"305.2216","CENTER_NAME":"EARTH","MEAN_ELEMENT_THEORY":"SGP4","ARG_OF_PERICENTER":"54.8949","OBJECT_NAME":"STARLINK-1750","TLE_LINE1":"1 46337U 20062N   22267.25507611 -.00000112  00000-0  11395-4 0  9997","EPOCH":"2022-09-24T06:07:18.575904","LAUNCH_DATE":"2020-09-03","OBJECT_TYPE":"PAYLOAD","MEAN_MOTION":"15.06404135","CLASSIFICATION_TYPE":"U","BSTAR":"0.00001139500000"}];
